{
  "type": "FeatureCollection",
  "features": [
    {
      "type": "Feature",
      "properties": {
        "norad_id": 54741,
        "name": "GALAXY 35 (G-35)",
        "group": "intelsat",
        "lat": 0.00022118435650181608,
        "lon": 113.23024815724098,
        "alt_km": 35795.54372572084,
        "timestamp": "2025-12-02T08:59:32.387721+00:00",
        "meta_object_name": "GALAXY 35 (G-35)",
        "meta_object_id": "2022-170A",
        "meta_epoch": "2025-12-02T03:04:09.570720",
        "meta_mean_motion": 1.00270332,
        "meta_eccentricity": 0.0002644,
        "meta_inclination": 0.0153,
        "meta_ra_of_asc_node": 282.4617,
        "meta_arg_of_pericenter": 334.7086,
        "meta_mean_anomaly": 127.0195,
        "meta_ephemeris_type": 0,
        "meta_classification_type": "U",
        "meta_norad_cat_id": 54741,
        "meta_element_set_no": 999,
        "meta_rev_at_epoch": 1091,
        "meta_bstar": 0,
        "meta_mean_motion_dot": -1.41e-06,
        "meta_mean_motion_ddot": 0,
        "tle_line1": "1 54741U 22170A   25336.12788855 -.00000141  00000+0  00000+0 0  9991",
        "tle_line2": "2 54741   0.0153 282.4617 0002644 334.7086 127.0195  1.00270332 10913"
      },
      "geometry": {
        "type": "Point",
        "coordinates": [
          113.23024815724098,
          0.00022118435650181608
        ]
      }
    },
    {
      "type": "Feature",
      "properties": {
        "norad_id": 54742,
        "name": "GALAXY 36 (G-36)",
        "group": "intelsat",
        "lat": -0.010148040638796168,
        "lon": 117.33820344335858,
        "alt_km": 35787.82544509855,
        "timestamp": "2025-12-02T08:59:32.387732+00:00",
        "meta_object_name": "GALAXY 36 (G-36)",
        "meta_object_id": "2022-170B",
        "meta_epoch": "2025-12-02T03:05:16.965312",
        "meta_mean_motion": 1.00270615,
        "meta_eccentricity": 5.51e-05,
        "meta_inclination": 0.0199,
        "meta_ra_of_asc_node": 260.0552,
        "meta_arg_of_pericenter": 344.0203,
        "meta_mean_anomaly": 144.4907,
        "meta_ephemeris_type": 0,
        "meta_classification_type": "U",
        "meta_norad_cat_id": 54742,
        "meta_element_set_no": 999,
        "meta_rev_at_epoch": 1079,
        "meta_bstar": 0,
        "meta_mean_motion_dot": -1.64e-06,
        "meta_mean_motion_ddot": 0,
        "tle_line1": "1 54742U 22170B   25336.12866858 -.00000164  00000+0  00000+0 0  9997",
        "tle_line2": "2 54742   0.0199 260.0552 0000551 344.0203 144.4907  1.00270615 10798"
      },
      "geometry": {
        "type": "Point",
        "coordinates": [
          117.33820344335858,
          -0.010148040638796168
        ]
      }
    },
    {
      "type": "Feature",
      "properties": {
        "norad_id": 57493,
        "name": "GALAXY 37 (G-37)",
        "group": "intelsat",
        "lat": 0.02722986573287866,
        "lon": 79.34061341500562,
        "alt_km": 35796.15072983973,
        "timestamp": "2025-12-02T08:59:32.387743+00:00",
        "meta_object_name": "GALAXY 37 (G-37)",
        "meta_object_id": "2023-112A",
        "meta_epoch": "2025-12-01T21:46:02.612352",
        "meta_mean_motion": 1.00271443,
        "meta_eccentricity": 0.000237,
        "meta_inclination": 0.0198,
        "meta_ra_of_asc_node": 293.7772,
        "meta_arg_of_pericenter": 321.1427,
        "meta_mean_anomaly": 15.6168,
        "meta_ephemeris_type": 0,
        "meta_classification_type": "U",
        "meta_norad_cat_id": 57493,
        "meta_element_set_no": 999,
        "meta_rev_at_epoch": 856,
        "meta_bstar": 0,
        "meta_mean_motion_dot": 6.9e-07,
        "meta_mean_motion_ddot": 0,
        "tle_line1": "1 57493U 23112A   25335.90697468  .00000069  00000+0  00000+0 0  9997",
        "tle_line2": "2 57493   0.0198 293.7772 0002370 321.1427  15.6168  1.00271443  8565"
      },
      "geometry": {
        "type": "Point",
        "coordinates": [
          79.34061341500562,
          0.02722986573287866
        ]
      }
    }
  ]
}